{
  "norad_id": 64867,
  "name": "O3B MPOWER F10",
  "history": [
    {
      "epoch": "2026-04-02T09:11:52.229760Z",
      "apogee_km": 8071.197475127598,
      "perigee_km": 8060.6013300226705,
      "latitude_deg": -0.006585434382556496,
      "longitude_deg": 31.299696025393043,
      "height_km": 8064.786499096248,
      "semi_major_axis_km": 14444.036402575135,
      "eccentricity": 0.0003668,
      "inclination_deg": 0.0514,
      "raan_deg": 9.7861,
      "arg_perigee_deg": 255.8387,
      "mean_anomaly_deg": 94.3308,
      "mean_motion_rev_day": 5.00115023
    }
  ]
}