O3B MPOWER F10          
1 64867U 25153B   26092.38324340 -.00000027  00000+0  00000+0 0  9991
2 64867   0.0514   9.7861 0003668 255.8387  94.3308  5.00115023 18244
